ONEWEB-0371             
1 49297U 21090U   24227.60472737  .00002006  00000+0  49790-2 0  9994
2 49297  87.9102  78.5748 0001654  87.6233 272.5089 13.19717467137879
ONEWEB-0372             
1 49298U 21090V   24227.50162838  .00000037  00000+0  58481-4 0  9993
2 49298  87.9186  48.0610 0001659  89.2582 270.8741 13.20772504142475
ONEWEB-0373             
1 49299U 21090W   24227.52860882  .00000160  00000+0  36275-3 0  9993
2 49299  87.9184  48.0709 0001901  79.4702 280.6646 13.20772156143666
ONEWEB-0374             
1 49300U 21090X   24227.60763609  .00000285  00000+0  73441-3 0  9998
2 49300  87.8919  63.2822 0001778  83.0104 277.1228 13.14502781139332
ONEWEB-0375             
1 49301U 21090Y   24227.51597807  .00000152  00000+0  34206-3 0  9993
2 49301  87.9185  48.0498 0002486  82.7656 277.3760 13.20771040141861
ONEWEB-0377             
1 49303U 21090AA  24227.57767046  .00000066  00000+0  12930-3 0  9999
2 49303  87.9186  48.0295 0001957  95.8136 264.3220 13.20772109141863
ONEWEB-0378             
1 49304U 21090AB  24227.52400837  .00000113  00000+0  24520-3 0  9998
2 49304  87.9186  48.0435 0001920  86.3546 273.7807 13.20773064142441
